#aV2022  5 29  0  0  0.00000000     288 DD+AD WGS84 FIT  NGA
## 2212      0.00000000   300.00000000 59728 0.0000000000000
+   32     1  2  3  4  5  6  7  8  9 10 11 12 13 14 15 16 17
+         18 19 20 21 22 23 24 25 26 27 28 29 30 31 32  0  0
+          0  0  0  0  0  0  0  0  0  0  0  0  0  0  0  0  0
+          0  0  0  0  0  0  0  0  0  0  0  0  0  0  0  0  0
+          0  0  0  0  0  0  0  0  0  0  0  0  0  0  0  0  0
++         2  2  2  2  2  2  2  2  2  2  2  2  2  2  2  2  2
++         2  2  2  2  2  2  2  2  2  2  2  2  2  2  2  0  0
++         0  0  0  0  0  0  0  0  0  0  0  0  0  0  0  0  0
++         0  0  0  0  0  0  0  0  0  0  0  0  0  0  0  0  0
++         0  0  0  0  0  0  0  0  0  0  0  0  0  0  0  0  0
%c cc cc ccc ccc cccc cccc cccc cccc ccccc ccccc ccccc ccccc
%c cc cc ccc ccc cccc cccc cccc cccc ccccc ccccc ccccc ccccc
%f  0.0000000  0.000000000  0.00000000000  0.000000000000000
%f  0.0000000  0.000000000  0.00000000000  0.000000000000000
%i    0    0    0    0      0      0      0      0         0
%i    0    0    0    0      0      0      0      0         0
/*      NGA, ST. LOUIS,MO.                                  
/*   EPHEMERIS COMPUTED FROM 2 DAYS OF DATA                 
/*   EPOCHA v7 SMOOTHER                                     
/*   G2139 IERS2010 SATIGS SATAPC                           
*  2022  5 29 13 10  0.00000000
P  1  13616.538851 -22459.494901  -2612.251940    352.554161                    
V  1   3519.483488  -1162.804446  32356.490807     -0.081143                    
P  2 -18310.794803   9612.103417 -16100.387717   -653.072520                    
V  2   9094.858122 -19684.201901 -21100.269828      0.002109                    
P  3  11558.570424 -12912.244809 -20203.819325   -261.119142                    
V  3  25264.367502   2846.023699  12817.504060     -0.128132                    
P  4   4550.353972 -19593.649670 -17288.209241   -162.558462                    
V  4  10510.964882  19417.225212 -19311.978829      0.037952                    
P  5 -24010.245932   6003.552241   9675.142266    -83.595991                    
V  5 -12393.637696  -2833.796039 -28359.543367     -0.013668                    
P  6 -13033.620246  -6765.774822 -22074.505610    322.221953                    
V  6  15834.257712 -23207.934839  -2152.876000      0.150229                    
P  7    790.270645 -21272.538921  15968.396744    322.193200                    
V  7  13119.486909 -14975.207453 -21631.641976     -0.000949                    
P  8  10501.503328 -11873.376177  21217.080770    -69.952570                    
V  8  13005.596594  23777.058275   7200.474316     -0.015827                    
P  9  -4871.965346 -24356.580622  -9425.400123   -332.910347                    
V  9   7837.871022   9365.263370 -28475.499269      0.031217                    
P 10  18768.384813  11627.902349  15122.882084   -433.487301                    
V 10 -18858.374119    188.119585  23202.901929     -0.153846                    
P 11 -19670.113702   6927.430241 -16440.029443    -19.580888                    
V 11  11220.833266 -17691.982473 -20902.557465      0.037370                    
P 12 -16259.207865  10430.172875 -18450.182472   -222.902313                    
V 12 -22460.366033  -4653.266679  17525.183631     -0.058379                    
P 13 -15076.852552   1809.464674  21651.800119    320.264917                    
V 13  -8418.385901 -26514.347516  -3451.143080      0.068520                    
P 14 -17201.366231 -13033.951135  15541.370895   -110.149757                    
V 14  19829.617903    120.919354  21953.867444     -0.012265                    
P 15  -8992.949046  13911.903866  20293.424283    -57.449522                    
V 15 -15703.884837 -21858.266282   8175.449541      0.030115                    
P 16  26180.406596    509.691471   5445.047270   -504.877628                    
V 16   6730.549558   3266.520600 -30655.197992     -0.030273                    
P 17 -13563.333920 -21751.505651  -6413.299303    618.550612                    
V 17  -1188.744303  -8924.652895  30772.345436      0.045652                    
P 18  -2321.044868  21451.671528  15405.337254    157.057815                    
V 18 -12832.116103  14925.423431 -22810.028581     -0.104299                    
P 19 -15961.381278 -16153.756703 -14210.893359    163.668286                    
V 19  -4440.309826 -16982.325326  24537.098902      0.049990                    
P 20 -26367.474020   1196.407044  -1420.137660    513.746482                    
V 20   1517.198191  -3704.318835 -31448.194211     -0.010425                    
P 21  17348.173488 -17779.319127   8996.877829    161.242885                    
V 21  -2709.926241  10829.718663  29331.376275      0.000945                    
P 22  16652.892402  13735.129654 -15175.268638    267.007217                    
V 22   5288.089716  19340.712596  22514.148949      0.062274                    
P 23   7905.071500  14612.252571  20736.561892    -24.913106                    
V 23 -26310.806578   -413.319531  10214.610314     -0.023039                    
P 24 -14332.611614  21956.333708   2148.558593    231.946857                    
V 24  -1944.778298  -4709.171234  31262.875360     -0.075625                    
P 25   -440.471673  15434.705103 -21902.001854    330.776686                    
V 25 -27072.770897  -1859.069669   -508.094641      0.047381                    
P 26  25687.338386   4686.491181  -5783.794550    208.877884                    
V 26  -7247.638244   3014.211572 -29893.247197      0.025196                    
P 27  16524.943043   1884.213397  20583.715632    209.754571                    
V 27  10956.263617  24135.070629 -10509.734036      0.047791                    
P 28 -22965.332208 -10060.304116   8910.955462    348.907318                    
V 28  10919.260437   -632.068435  29326.963400     -0.073984                    
P 29   2898.612363  24636.874155  -9449.037432   -518.651422                    
V 29  -6247.277683 -10349.117833 -29127.409461     -0.038950                    
P 30  -7484.206233 -15387.967272  20342.016148   -529.642132                    
V 30  15865.924335 -20372.661918  -9867.402489     -0.013124                    
P 31  15406.707141   4441.864033 -21367.010633   -179.615914                    
V 31 -15278.136884  21994.999250  -6025.250833     -0.015577                    
P 32  16174.268537  19368.262206  -8440.437643   -138.354301                    
V 32   2501.687361  10889.092070  29082.424061     -0.089947                    
EOF
